{"type": "FeatureCollection", "features": [ {"type": "Feature", "properties": {"norad_id": 42969, "name": "SENTINEL-5P", "group": "resource", "lat": 55.74376202895672, "lon": 111.57102777021908, "alt_km": 821.1089238274699, "timestamp": "2025-12-05T19:30:25.224747+00:00", "meta": {"OBJECT_NAME": "SENTINEL-5P", "OBJECT_ID": "2017-064A", "EPOCH": "2025-12-05T07:05:13.536384", "MEAN_MOTION": 14.19514571, "ECCENTRICITY": 9.347e-05, "INCLINATION": 98.7773, "RA_OF_ASC_NODE": 277.9459, "ARG_OF_PERICENTER": 86.4768, "MEAN_ANOMALY": 273.6515, "EPHEMERIS_TYPE": 0, "CLASSIFICATION_TYPE": "U", "NORAD_CAT_ID": 42969, "ELEMENT_SET_NO": 999, "REV_AT_EPOCH": 42205, "BSTAR": 0.00010816561, "MEAN_MOTION_DOT": 1.84e-06, "MEAN_MOTION_DDOT": 0}, "tle": {"line1": "1 42969U 17064A   25339.29529556  .00000184  00000+0  10817-3 0  9995", "line2": "2 42969  98.7773 277.9459 0000934  86.4768 273.6515 14.19514571422051"}}, "geometry": {"type": "Point", "coordinates": [111.57102777021908, 55.74376202895672]}}, {"type": "Feature", "properties": {"norad_id": 42987, "name": "SKYSAT-C11", "group": "resource", "lat": -61.785185100515, "lon": 131.18157022703176, "alt_km": 433.3043556489456, "timestamp": "2025-12-05T19:30:25.224760+00:00", "meta": {"OBJECT_NAME": "SKYSAT-C11", "OBJECT_ID": "2017-068A", "EPOCH": "2025-12-05T07:21:30.570912", "MEAN_MOTION": 15.4698732, "ECCENTRICITY": 9.601e-05, "INCLINATION": 97.4138, "RA_OF_ASC_NODE": 116.6174, "ARG_OF_PERICENTER": 111.065, "MEAN_ANOMALY": 249.0703, "EPHEMERIS_TYPE": 0, "CLASSIFICATION_TYPE": "U", "NORAD_CAT_ID": 42987, "ELEMENT_SET_NO": 999, "REV_AT_EPOCH": 45316, "BSTAR": 0.00069712678, "MEAN_MOTION_DOT": 0.00035195, "MEAN_MOTION_DDOT": 0}, "tle": {"line1": "1 42987U 17068A   25339.30660383  .00035195  00000+0  69713-3 0  9994", "line2": "2 42987  97.4138 116.6174 0000960 111.0650 249.0703 15.46987320453168"}}, "geometry": {"type": "Point", "coordinates": [131.18157022703176, -61.785185100515]}}, {"type": "Feature", "properties": {"norad_id": 42988, "name": "SKYSAT-C10", "group": "resource", "lat": 38.11035893996506, "lon": 104.77777674877352, "alt_km": 467.41013028532416, "timestamp": "2025-12-05T19:30:25.224771+00:00", "meta": {"OBJECT_NAME": "SKYSAT-C10", "OBJECT_ID": "2017-068B", "EPOCH": "2025-12-04T07:16:54.383808", "MEAN_MOTION": 15.31835554, "ECCENTRICITY": 0.0006971, "INCLINATION": 97.4228, "RA_OF_ASC_NODE": 109.1352, "ARG_OF_PERICENTER": 134.0692, "MEAN_ANOMALY": 226.1124, "EPHEMERIS_TYPE": 0, "CLASSIFICATION_TYPE": "U", "NORAD_CAT_ID": 42988, "ELEMENT_SET_NO": 999, "REV_AT_EPOCH": 45250, "BSTAR": 0.00074085, "MEAN_MOTION_DOT": 0.00022753, "MEAN_MOTION_DDOT": 0}, "tle": {"line1": "1 42988U 17068B   25338.30340722  .00022753  00000+0  74085-3 0  9990", "line2": "2 42988  97.4228 109.1352 0006971 134.0692 226.1124 15.31835554452508"}}, "geometry": {"type": "Point", "coordinates": [104.77777674877352, 38.11035893996506]}}, {"type": "Feature", "properties": {"norad_id": 42989, "name": "SKYSAT-C9", "group": "resource", "lat": 32.39010081869553, "lon": -65.24430054498478, "alt_km": 450.9781920141413, "timestamp": "2025-12-05T19:30:25.224782+00:00", "meta": {"OBJECT_NAME": "SKYSAT-C9", "OBJECT_ID": "2017-068C", "EPOCH": "2025-12-05T07:55:21.826272", "MEAN_MOTION": 15.35760455, "ECCENTRICITY": 0.00106439, "INCLINATION": 97.4189, "RA_OF_ASC_NODE": 109.5279, "ARG_OF_PERICENTER": 111.7401, "MEAN_ANOMALY": 248.4976, "EPHEMERIS_TYPE": 0, "CLASSIFICATION_TYPE": "U", "NORAD_CAT_ID": 42989, "ELEMENT_SET_NO": 999, "REV_AT_EPOCH": 45294, "BSTAR": 0.00064898703, "MEAN_MOTION_DOT": 0.00022574, "MEAN_MOTION_DDOT": 0}, "tle": {"line1": "1 42989U 17068C   25339.33011373  .00022574  00000+0  64899-3 0  9995", "line2": "2 42989  97.4189 109.5279 0010643 111.7401 248.4976 15.35760455452949"}}, "geometry": {"type": "Point", "coordinates": [-65.24430054498478, 32.39010081869553]}}, {"type": "Feature", "properties": {"norad_id": 42990, "name": "SKYSAT-C8", "group": "resource", "lat": -15.420611590158934, "lon": -72.27785825172579, "alt_km": 474.04874518579254, "timestamp": "2025-12-05T19:30:25.224792+00:00", "meta": {"OBJECT_NAME": "SKYSAT-C8", "OBJECT_ID": "2017-068D", "EPOCH": "2025-12-05T07:41:19.330368", "MEAN_MOTION": 15.326728, "ECCENTRICITY": 0.00020379, "INCLINATION": 97.428, "RA_OF_ASC_NODE": 109.2902, "ARG_OF_PERICENTER": 15.2362, "MEAN_ANOMALY": 344.8941, "EPHEMERIS_TYPE": 0, "CLASSIFICATION_TYPE": "U", "NORAD_CAT_ID": 42990, "ELEMENT_SET_NO": 999, "REV_AT_EPOCH": 45257, "BSTAR": 0.00063389336, "MEAN_MOTION_DOT": 0.00019952, "MEAN_MOTION_DDOT": 0}, "tle": {"line1": "1 42990U 17068D   25339.32036262  .00019952  00000+0  63389-3 0  9999", "line2": "2 42990  97.4280 109.2902 0002037  15.2362 344.8941 15.32672800452570"}}, "geometry": {"type": "Point", "coordinates": [-72.27785825172579, -15.420611590158934]}}, {"type": "Feature", "properties": {"norad_id": 42991, "name": "SKYSAT-C7", "group": "resource", "lat": 64.51844932850528, "lon": 94.9419862009959, "alt_km": 458.0112987605553, "timestamp": "2025-12-05T19:30:25.224803+00:00", "meta": {"OBJECT_NAME": "SKYSAT-C7", "OBJECT_ID": "2017-068E", "EPOCH": "2025-12-05T03:32:49.838784", "MEAN_MOTION": 15.32073797, "ECCENTRICITY": 0.00078966, "INCLINATION": 97.4286, "RA_OF_ASC_NODE": 110.1642, "ARG_OF_PERICENTER": 80.9254, "MEAN_ANOMALY": 279.2881, "EPHEMERIS_TYPE": 0, "CLASSIFICATION_TYPE": "U", "NORAD_CAT_ID": 42991, "ELEMENT_SET_NO": 999, "REV_AT_EPOCH": 45261, "BSTAR": 0.00064678023, "MEAN_MOTION_DOT": 0.00019999, "MEAN_MOTION_DDOT": 0}, "tle": {"line1": "1 42991U 17068E   25339.14779906  .00019999  00000+0  64678-3 0  9992", "line2": "2 42991  97.4286 110.1642 0007896  80.9254 279.2881 15.32073797452615"}}, "geometry": {"type": "Point", "coordinates": [94.9419862009959, 64.51844932850528]}}, {"type": "Feature", "properties": {"norad_id": 42992, "name": "SKYSAT-C6", "group": "resource", "lat": -23.221882655159668, "lon": -71.93528492006423, "alt_km": 478.27685633219517, "timestamp": "2025-12-05T19:30:25.224813+00:00", "meta": {"OBJECT_NAME": "SKYSAT-C6", "OBJECT_ID": "2017-068F", "EPOCH": "2025-12-05T07:38:38.100192", "MEAN_MOTION": 15.31255053, "ECCENTRICITY": 0.00051728, "INCLINATION": 97.4322, "RA_OF_ASC_NODE": 110.7801, "ARG_OF_PERICENTER": 103.4888, "MEAN_ANOMALY": 256.693, "EPHEMERIS_TYPE": 0, "CLASSIFICATION_TYPE": "U", "NORAD_CAT_ID": 42992, "ELEMENT_SET_NO": 999, "REV_AT_EPOCH": 45262, "BSTAR": 0.0006217754, "MEAN_MOTION_DOT": 0.00018725, "MEAN_MOTION_DDOT": 0}, "tle": {"line1": "1 42992U 17068F   25339.31849653  .00018725  00000+0  62178-3 0  9998", "line2": "2 42992  97.4322 110.7801 0005172 103.4888 256.6930 15.31255053452620"}}, "geometry": {"type": "Point", "coordinates": [-71.93528492006423, -23.221882655159668]}}, {"type": "Feature", "properties": {"norad_id": 43111, "name": "CARTOSAT-2F", "group": "resource", "lat": -70.95436956179853, "lon": -164.65839444517448, "alt_km": 515.8256586559164, "timestamp": "2025-12-05T19:30:25.224823+00:00", "meta": {"OBJECT_NAME": "CARTOSAT-2F", "OBJECT_ID": "2018-004A", "EPOCH": "2025-12-05T07:20:01.021632", "MEAN_MOTION": 15.19162723, "ECCENTRICITY": 4.843e-05, "INCLINATION": 97.4331, "RA_OF_ASC_NODE": 37.0637, "ARG_OF_PERICENTER": 132.2395, "MEAN_ANOMALY": 227.8881, "EPHEMERIS_TYPE": 0, "CLASSIFICATION_TYPE": "U", "NORAD_CAT_ID": 43111, "ELEMENT_SET_NO": 999, "REV_AT_EPOCH": 43789, "BSTAR": 0.00049080909, "MEAN_MOTION_DOT": 0.00010257, "MEAN_MOTION_DDOT": 0}, "tle": {"line1": "1 43111U 18004A   25339.30556738  .00010257  00000+0  49081-3 0  9991", "line2": "2 43111  97.4331  37.0637 0000484 132.2395 227.8881 15.19162723437890"}}, "geometry": {"type": "Point", "coordinates": [-164.65839444517448, -70.95436956179853]}}, {"type": "Feature", "properties": {"norad_id": 43259, "name": "GAOFEN-1 02", "group": "resource", "lat": 3.0104001306418575, "lon": 37.17134882660862, "alt_km": 643.5966442491126, "timestamp": "2025-12-05T19:30:25.224833+00:00", "meta": {"OBJECT_NAME": "GAOFEN-1 02", "OBJECT_ID": "2018-031A", "EPOCH": "2025-12-05T08:06:28.096416", "MEAN_MOTION": 14.76456391, "ECCENTRICITY": 0.00013391, "INCLINATION": 98.0818, "RA_OF_ASC_NODE": 37.1243, "ARG_OF_PERICENTER": 245.2818, "MEAN_ANOMALY": 114.8252, "EPHEMERIS_TYPE": 0, "CLASSIFICATION_TYPE": "U", "NORAD_CAT_ID": 43259, "ELEMENT_SET_NO": 999, "REV_AT_EPOCH": 41409, "BSTAR": 0.00030412338, "MEAN_MOTION_DOT": 2.064e-05, "MEAN_MOTION_DDOT": 0}, "tle": {"line1": "1 43259U 18031A   25339.33782519  .00002064  00000+0  30412-3 0  9990", "line2": "2 43259  98.0818  37.1243 0001339 245.2818 114.8252 14.76456391414092"}}, "geometry": {"type": "Point", "coordinates": [37.17134882660862, 3.0104001306418575]}}, {"type": "Feature", "properties": {"norad_id": 43260, "name": "GAOFEN-1 03", "group": "resource", "lat": 59.69289109210276, "lon": -128.45510738765557, "alt_km": 635.9505675908067, "timestamp": "2025-12-05T19:30:25.224844+00:00", "meta": {"OBJECT_NAME": "GAOFEN-1 03", "OBJECT_ID": "2018-031B", "EPOCH": "2025-12-05T07:34:58.886976", "MEAN_MOTION": 14.76412741, "ECCENTRICITY": 0.00024578, "INCLINATION": 98.081, "RA_OF_ASC_NODE": 36.9802, "ARG_OF_PERICENTER": 352.5349, "MEAN_ANOMALY": 7.5823, "EPHEMERIS_TYPE": 0, "CLASSIFICATION_TYPE": "U", "NORAD_CAT_ID": 43260, "ELEMENT_SET_NO": 999, "REV_AT_EPOCH": 41408, "BSTAR": 0.00030556111, "MEAN_MOTION_DOT": 2.072e-05, "MEAN_MOTION_DDOT": 0}, "tle": {"line1": "1 43260U 18031B   25339.31595934  .00002072  00000+0  30556-3 0  9991", "line2": "2 43260  98.0810  36.9802 0002457 352.5349   7.5823 14.76412741414089"}}, "geometry": {"type": "Point", "coordinates": [-128.45510738765557, 59.69289109210276]}}]}